CUBEBEL-1 (BSUSAT-1)    
1 43666U 18083E   21198.20682215  .00001241  00000-0  61593-4 0  9998
2 43666  97.4525 226.1982 0016246  67.3624 357.2493 15.19456167150538
CICERO 10               
1 43690U 18088A   21198.11106624  .00001047  00000-0  44918-4 0  9991
2 43690  85.0385 178.0986 0012425 307.5710  52.4402 15.21329061148717
IRVINE01                
1 43693U 18088D   21197.41183042  .00003555  00000-0  13701-3 0  9996
2 43693  85.0349 175.7102 0013554 279.6562  80.3151 15.25864305148857
PROXIMA I               
1 43694U 18088E   21197.39047327  .00001158  00000-0  47296-4 0  9993
2 43694  85.0326 176.1134 0016118 274.4395  85.5006 15.23056650148781
PROXIMA II              
1 43696U 18088G   21197.45446152  .00001103  00000-0  44999-4 0  9998
2 43696  85.0327 176.0803 0016168 274.1299  85.8095 15.23053998148784
FACSAT-1                
1 43721U 18096C   21198.17351970  .00002207  00000-0  80654-4 0  9993
2 43721  97.3844 275.0879 0017149 160.6706 285.9540 15.29044644146665
CENTAURI-2              
1 43722U 18096D   21197.45193543  .00002885  00000-0  10097-3 0  9999
2 43722  97.3867 275.2293 0017030 161.7653 198.4202 15.30208971146597
INNOSAT-2               
1 43738U 18096V   21198.21526975  .00004365  00000-0  13490-3 0  9995
2 43738  97.3926 279.9468 0021910 160.3357 252.2699 15.33832263146963
SIRION PATHFINDER-2     
1 43759U 18099B   21197.49749170 -.00000069  00000-0 -10320-5 0  9994
2 43759  97.6632 267.4349 0012993 310.6895  49.3197 14.95546959142821
CORVUS BC4              
1 43767U 18099K   21198.12260264  .00000252  00000-0  28206-4 0  9999
2 43767  97.6600 267.0026 0010517 314.2300  45.8056 14.94966844142861
MOVE-II                 
1 43780U 18099Y   21197.17334460  .00000040  00000-0  86988-5 0  9995
2 43780  97.6657 267.2926 0012395 323.6253  36.4124 14.95981338142763
SPACEBEE-7              
1 43816U 18099BL  21197.18112790  .00000029  00000-0  76896-5 0  9990
2 43816  97.6671 267.9104 0012055 305.5657  54.4440 14.96173340142357
SPACEBEE-5              
1 43817U 18099BM  21197.16283179  .00001214  00000-0  10918-3 0  9997
2 43817  97.6773 269.2424 0011166 305.3126  54.7052 14.97459317142402
SPACEBEE-6              
1 43818U 18099BN  21198.14108039  .00001049  00000-0  97209-4 0  9993
2 43818  97.6697 269.2638 0011542 301.0475  58.9613 14.96563185142668
SHIELDS 1               
1 43850U 18104B   21197.51768701  .00000572  00000-0  23222-4 0  9998
2 43850  85.0293 274.6972 0016818  65.9107 294.3891 15.21937329143396
STF-1                   
1 43852U 18104D   21197.27737595  .00001289  00000-0  53627-4 0  9998
2 43852  85.0331 275.5209 0016421  79.2757 281.0333 15.22559127143349
ZACUBE-2                
1 43907U 18111AH  21198.12124384  .00000554  00000-0  24687-4 0  9996
2 43907  97.2294  91.2642 0020949 183.5200 314.2687 15.25257718142152
LUME 1                  
1 43908U 18111AJ  21197.50345722  .00001117  00000-0  45483-4 0  9992
2 43908  97.2304  91.2837 0020133 183.4170 176.6935 15.26340431142108
AOBA VELOX-IV           
1 43940U 19003J   21198.17986042  .00002907  00000-0  11008-3 0  9992
2 43940  97.1755 241.1504 0020392 262.5482  97.3441 15.27509151138846
UNITE                   
1 44031U 98067PX  21197.98380718  .00046093  00000-0  22754-3 0  9991
2 44031  51.6379 112.1182 0003132 101.6878 258.4476 15.81606743140340
RAAVANA-1               
1 44329U 98067QE  21197.83866183  .00054097  00000-0  27196-3 0  9998
2 44329  51.6335 132.9831 0004729  64.1579 295.9910 15.81135047118806
UGUISU                  
1 44330U 98067QF  21197.84889402  .00051087  00000-0  26618-3 0  9994
2 44330  51.6295 133.6916 0004860  59.9020 300.2462 15.80378696118770
NEPALISAT-1             
1 44331U 98067QG  21197.20452468  .00064211  00000-0  32484-3 0  9994
2 44331  51.6310 136.1447 0004793  60.6556 299.4924 15.80928506118698
SPOOQY-1                
1 44332U 98067QH  21197.87680522  .00050086  00000-0  26935-3 0  9991
2 44332  51.6321 133.9359 0004671  67.0070 293.1424 15.79693749118743
SPACEBEE-9              
1 44370U 19037F   21197.92350669  .00026234  00000-0  33247-3 0  9997
2 44370  44.9992  50.1389 0001731 349.2826  10.8032 15.59039286115783
MOVE-IIB                
1 44398U 19038N   21198.18923820  .00000999  00000-0  58816-4 0  9992
2 44398  97.5856 162.0645 0023128 204.0992 155.9159 15.13770950112261
SONATE                  
1 44400U 19038Q   21197.55487463  .00000683  00000-0  42703-4 0  9992
2 44400  97.5922 161.2852 0023832 206.8065 153.1929 15.12601006112138
LUCKY-7                 
1 44406U 19038W   21197.48464499  .00000561  00000-0  35390-4 0  9993
2 44406  97.5913 161.4787 0023366 205.4628 154.5454 15.13013830112136
BEESAT 9                
1 44412U 19038AC  21197.43124876  .00000831  00000-0  50123-4 0  9998
2 44412  97.5896 161.4593 0021132 210.6930 149.3067 15.13365402111834
JAISAT-1                
1 44419U 19038F   21197.52394299  .00000839  00000-0  49926-4 0  9990
2 44419  97.5900 162.1219 0020051 208.1372 151.8777 15.13850523112190
KRAKSAT                 
1 44427U 98067QM  21198.14689240  .00022298  00000-0  19536-3 0  9996
2 44427  51.6377 149.3156 0003370  24.7149  71.2368 15.68785298116139
VCC A                   
1 44428U 98067QN  21196.30784071  .00054660  00000-0  31915-3 0  9994
2 44428  51.6343 146.1161 0003809  47.4906 312.6415 15.77832179116017
ENTRYSAT                
1 44429U 98067QP  21198.19457843  .00202704  27323-4  49268-3 0  9993
2 44429  51.6223 122.3636 0002430 116.0164 244.1095 15.95860658116494
VCC B                   
1 44431U 98067QR  21197.25977887  .00056273  00000-0  31443-3 0  9990
2 44431  51.6307 140.3566 0003168  51.2773 308.8511 15.78804828116115
DUCHIFAT-3              
1 44854U 19089C   21197.62581743  .00000338  00000-0  33360-4 0  9991
2 44854  36.9682 288.1120 0008823   7.1788 352.9062 14.99538556 87484
EYESAT-NANO             
1 44877U 19092E   21198.08137309  .00001283  00000-0  66065-4 0  9994
2 44877  97.4611  21.2976 0014790  87.0355 273.2571 15.18129634 87435
ORBITAL FACTORY 2 (OF-2)
1 45113U 19071C   21197.42517973  .00002165  00000-0  71717-4 0  9991
2 45113  51.6416 257.0187 0012261  39.4997 320.6877 15.35977063 81628
M2 PATHFINDER           
1 45727U 20037E   21197.80454448  .00000025  00000-0  80796-5 0  9996
2 45727  97.7170  14.9869 0014234  71.8838 288.3931 14.91405625 56792
NETSAT-4                
1 46504U 20068U   21197.47718946  .00000141  00000-0  15373-4 0  9990
2 46504  97.6961 134.0980 0014409  35.4474 324.7695 15.02156634 43599
NETSAT-3                
1 46505U 20068V   21197.35156088  .00000346  00000-0  30953-4 0  9999
2 46505  97.6946 133.9338 0012071  44.9556 315.2643 15.02121102 43586
NETSAT-1                
1 46506U 20068W   21197.35880086  .00000501  00000-0  42771-4 0  9996
2 46506  97.6932 133.9065 0008991  52.0372 308.1659 15.02087381 43589
NETSAT-2                
1 46507U 20068X   21197.36290246  .00000715  00000-0  59086-4 0  9995
2 46507  97.6919 133.9073 0007461  55.2040 304.9885 15.02061335 43533
SPOC                    
1 46921U 98067RR  21197.51299085  .00007099  00000-0  11116-3 0  9999
2 46921  51.6404 191.0599 0001346 157.3755 202.7296 15.54920292 39374
BOBCAT-1                
1 46922U 98067RS  21197.87861619  .00010824  00000-0  15430-3 0  9990
2 46922  51.6414 187.5249 0000775 142.2265 217.8782 15.56876783 39411
NEUTRON-1               
1 46923U 98067RT  21197.53092690  .00007190  00000-0  11302-3 0  9995
2 46923  51.6405 191.1768 0001102 177.2644 182.8353 15.54791156 39405
1998-067RU              
1 46924U 98067RU  21197.38745683  .00024340  00000-0  28555-3 0  9990
2 46924  51.6383 186.4558 0001011 355.3069   4.7915 15.61349942 39433
DESCENT                 
1 46927U 98067RX  21197.40770173  .00007879  00000-0  12322-3 0  9991
2 46927  51.6405 191.8509 0001007 220.9263 139.1653 15.54778648 39304
SAI-1 NANOCONNECT-2     
1 47701U 21015C   21198.18448418 -.00000071  00000-0  00000+0 0  9995
2 47701  97.4539 272.5279 0011750 184.3896 175.7477 15.22775280 21140
WARP-01                 
1 47924U 98067SA  21197.27729968  .00010372  00000-0  17378-3 0  9998
2 47924  51.6406 196.9594 0003558 211.4843 148.5934 15.52456009 19277
RSP-01                  
1 47925U 98067SB  21197.41053327  .00008166  00000-0  14002-3 0  9993
2 47925  51.6413 196.3573 0002100 116.3292 243.7914 15.52138542 19275
TAUSAT-1                
1 47926U 98067SC  21197.37123098  .00008283  00000-0  13838-3 0  9998
2 47926  51.6406 196.0938 0002941 122.1925 237.9351 15.52853215 19261
TSURU                   
1 47927U 98067SD  21197.35410703  .00007371  00000-0  12811-3 0  9996
2 47927  51.6413 196.7301 0002218 116.7081 243.4136 15.51922168 19266
STARS-EC                
1 47928U 98067SE  21197.21881509  .00010535  00000-0  17701-3 0  9997
2 47928  51.6409 197.3199 0004130 217.5689 142.5013 15.52355023 19223
MAYA-2                  
1 47929U 98067SF  21197.22280868  .00007336  00000-0  12741-3 0  9994
2 47929  51.6413 197.3532 0002359 114.9499 245.1736 15.51949744 19208
HIROGARI (OPUSAT-II)    
1 47930U 98067SG  21197.38931016  .00011299  00000-0  18647-3 0  9995
2 47930  51.6412 196.2173 0002278 101.1238 259.0009 15.52777556 19272
GUARANISAT-1            
1 47931U 98067SH  21197.99443966  .00006945  00000-0  12092-3 0  9995
2 47931  51.6414 193.5083 0002393 116.5843 243.5392 15.51974966 19361
SMOG-1                  
1 47964U 21022AJ  21197.71233979  .00000368  00000-0  28581-4 0  9993
2 47964  97.5558  99.5040 0018986 200.9305 159.1148 15.07135537 16282
MMSATS-1                
1 47976U 98067SJ  21197.45475966  .00002090  00000-0  44495-4 0  9990
2 47976  51.6473 197.3752 0002239 177.7293 182.3707 15.50058009 18041
BCCSAT-1                
1 48041U 21022AK  21197.95207526  .00000913  00000-0  65692-4 0  9995
2 48041  97.5564  99.6623 0015414 196.2053 163.8684 15.06584310 16298
